{
  "type": "FeatureCollection",
  "features": [
    {
      "type": "Feature",
      "properties": { "name": "Building Shadow" },
      "geometry": {
        "type": "Polygon",
        "coordinates": [[
          [44.5018, 48.7194],
          [44.5019, 48.7196],
          [44.5019, 48.7194],
          [44.5021, 48.7196],
          [44.5019, 48.7195],
          [44.5021, 48.7197],
          [44.5018, 48.7195],
          [44.5019, 48.7197]
         ,[44.5018, 48.7194]
        ]]
      }
    }
  ]
}
